#cP2017 11  4  0  0  0.00000000      96 ORBIT IGS14 HLM  IGS
## 1973 518400.00000000   900.00000000 58061 0.0000000000000
+   32   G01G02G03G04G05G06G07G08G09G10G11G12G13G14G15G16G17
+        G18G19G20G21G22G23G24G25G26G27G28G29G30G31G32  0  0
+          0  0  0  0  0  0  0  0  0  0  0  0  0  0  0  0  0
+          0  0  0  0  0  0  0  0  0  0  0  0  0  0  0  0  0
+          0  0  0  0  0  0  0  0  0  0  0  0  0  0  0  0  0
++         2  2  2  0  2  2  2  2  2  2  2  2  2  2  2  2  2
++         2  2  2  2  2  2  2  2  2  2  2  2  2  2  2  0  0
++         0  0  0  0  0  0  0  0  0  0  0  0  0  0  0  0  0
++         0  0  0  0  0  0  0  0  0  0  0  0  0  0  0  0  0
++         0  0  0  0  0  0  0  0  0  0  0  0  0  0  0  0  0
%c G  cc GPS ccc cccc cccc cccc cccc ccccc ccccc ccccc ccccc
%c cc cc ccc ccc cccc cccc cccc cccc ccccc ccccc ccccc ccccc
%f  1.2500000  1.025000000  0.00000000000  0.000000000000000
%f  0.0000000  0.000000000  0.00000000000  0.000000000000000
%i    0    0    0    0      0      0      0      0         0
%i    0    0    0    0      0      0      0      0         0
/* RAPID ORBIT COMBINATION FROM WEIGHTED AVERAGE OF:        
/* cod emr esa gfz jpl ngs sio usn whu                      
/* REFERENCED TO IGS TIME (IGST) AND TO WEIGHTED MEAN POLE: 
/* PCV:IGS14_1973 OL/AL:FES2004  NONE     Y  ORB:CMB CLK:CMB
*  2017 11  4  9 45  0.00000000
PG01  13588.357626  -8936.063997  20806.253615     -8.236637  5  6  4  93       
PG02 -13922.961792 -15459.170098 -16155.280140    289.532053  9  8  6 102       
PG03  22773.511145 -13225.715644   3236.468216    -46.911271  6  4  5 100       
PG04  21741.361429  13648.115483  -8009.401474 999999.999999
PG05 -18783.697648  -2963.124675 -18723.229018    -23.825289  9  7  7 114       
PG06  -7398.204202 -24395.816902  -7422.207275    408.185537  8  5  5  80       
PG07   6696.307700 -22486.571793 -11808.809353    284.181402  3  3  6  99       
PG08  24685.822976   4303.206222   9025.090583    -79.406406  5  5  6  98       
PG09   9360.486125 -12522.791405 -21503.909226    467.124967  6  5  5 122       
PG10  -2012.473012  18035.736798  19370.350934    103.632016  8  6  6  88       
PG11  15879.410294  -4280.027314  20279.579435   -724.760222  4  5  4 102       
PG12 -23735.278674   9677.043098   6395.778220    366.295087  6  7  4  97       
PG13 -23503.505412 -11902.895077   3161.855279    -93.548418  8  7  5 106       
PG14  15446.128478  18254.128275  12016.608543    -87.799177  7  8  3  97       
PG15 -24585.214215   -966.370713  10290.992685   -357.010907  7  5  7 102       
PG16  18833.404246   3220.883222 -18756.131726     36.610146  9  8  7  98       
PG17  -7130.404874 -17876.807936  18744.068723   -146.796876  5  4  6  86       
PG18 -11343.368957  20775.285402  12458.325001    632.282117  8  7  6  79       
PG19 -14526.343837 -18144.634333  12366.787926   -477.525548  6  4  5  57       
PG20 -22514.675927  11810.439132  -7786.171212    491.755462  7  7  6 109       
PG21  -3119.661776  24563.894511  -8722.263945   -465.219773  7  6  5 114       
PG22  23130.774816  -7809.361880  10736.428793   -177.595032  8  7  6 110       
PG23  19527.584466  -4914.122159 -17271.668293   -218.506807  8  6  7 116       
PG24 -14709.078308   5963.163064  21174.914830    -41.794022  5  7  4  89       
PG25 -19050.775108  17621.927680  -5229.847248   -483.898706  6  5     85       
PG26  10167.253245  11479.285545 -21682.202532   -374.274601  4  4  4 107       
PG27  23384.905044  12609.153674  -2544.964512    344.325337  8  7  5 100       
PG28   6764.179391 -18259.529586  18706.718303    659.690019  4  5  3  86       
PG29 -14381.845144   8044.436403 -20841.651962    542.637135  3  4  6 119       
PG30    540.382858 -26399.845575  -1978.928291    130.318441  6  4  4  96       
PG31   8171.810681  23019.398244  -9841.198858    164.383725  7  5  6  99       
PG32  10188.995428  17748.368381  16986.615336   -520.252371  6  6  5  82       
*  2017 11  4 10  0  0.00000000
PG01  13941.867249  -6510.299136  21482.204097     -8.238697  5  5  4  90       
PG02 -14037.985902 -17279.931315 -14179.577344    289.523526 10  8  6 111       
PG03  22501.422695 -12700.850586   6027.390227    -46.906499  6  3  6  99       
PG04  20703.730911  13527.026689 -10559.720393 999999.999999
PG05 -17130.093441  -4408.880461 -19970.614239    -23.824454  9  6  6 119       
PG06  -7261.773180 -25111.714495  -4662.562098    408.187234  8  5  5  91       
PG07   7090.091785 -20990.932755 -14112.183850    284.176928  3  3  6 109       
PG08  25410.004010   4828.264650   6343.327011    -79.408211  6  5  5 105       
PG09  11583.578880 -11552.793134 -20957.408142    467.129455  5  5  4 127       
PG10  -3795.455581  19214.075863  17901.078605    103.639258  8  5  6  80       
PG11  17020.796746  -2136.343139  19689.649202   -724.761936  3  5  3 115       
PG12 -23076.865687   9021.618201   9129.529869    366.293515  7  6  5 104       
PG13 -23571.239137 -12208.623970    296.317385    -93.549413  7  7  5  93       
PG14  14066.486177  17746.424846  14293.101634    -87.799866  7  8  3  92       
PG15 -25491.041795  -1575.165896   7784.721876   -357.011126  7  6  7  93       
PG16  17025.852822   4445.014636 -20155.226344     36.609957  9  7  6  75       
PG17  -5164.786775 -17016.217859  20151.583504   -146.794744  4  3  5  80       
PG18 -12474.732502  21330.617604  10085.122748    632.282269  8  7  5  97       
PG19 -13040.138264 -17543.817399  14649.552681   -477.523832  6  5  5  80       
PG20 -21980.003072  10883.058002 -10309.064369    491.756178  7  7  6 109       
PG21  -3619.414252  23380.892246 -11210.587904   -465.216898  6  5  4 111       
PG22  22293.900790  -6729.928984  13038.715985   -177.606698  9  6  7 108       
PG23  21223.198091  -4024.783043 -15471.187520   -218.507103  8  6  7 116       
PG24 -15137.924318   3535.028351  21438.358113    -41.795001  5  7  4  95       
PG25 -19521.499694  17693.593869  -2375.183520   -483.904398  6  5  1  95       
PG26   8203.396648  12997.030644 -21648.315940   -374.262759  5  4  4 102       
PG27  22903.320868  12612.903649  -5371.573468    344.328839  8  7  6  90       
PG28   8438.486534 -19204.942255  16935.963592    659.692976  6  4  3  93       
PG29 -16419.167667   6949.967650 -19696.854697    542.632966  3  4  5 121       
PG30    870.115858 -26030.877614  -4778.757201    130.316085  6  4  5  90       
PG31   8009.665158  24030.927770  -7183.756885    164.381466  7  5  6  97       
PG32   8256.738643  17104.587119  18614.733319   -520.255639  6  6  5  68       
*  2017 11  4 10 15  0.00000000
PG01  14432.319620  -4054.097199  21782.805142     -8.240799  5  5  3  86       
PG02 -14190.088863 -18854.183881 -11955.223417    289.514836 10  7  7 114       
PG03  22020.239741 -11961.554364   8714.241409    -46.901728  6  3  6 102       
PG04  19394.682342  13393.755311 -12934.909462 999999.999999
PG05 -15459.662391  -6017.103980 -20878.862759    -23.823227  8  5  5 126       
PG06  -7105.351313 -25521.808413  -1822.600141    408.188868  8  4  5  90       
PG07   7599.440988 -19271.115022 -16164.544461    284.172542  3  4  6 104       
PG08  25868.957667   5213.794180   3553.254746    -79.408676  7  5  5 100       
PG09  13775.749986 -10724.245206 -20051.374584    467.133942  5  4  4 132       
PG10  -5376.139324  20364.106105  16122.842158    103.646524  8  5  5  83       
PG11  18200.623485   -115.678164  18743.306308   -724.763235  4  5  3 109       
PG12 -22213.657176   8146.810369  11703.385213    366.292136  8  6  5 100       
PG13 -23363.968127 -12365.352607  -2574.337706    -93.549392  8  7  5  27       
PG14  12442.492398  17214.104575  16329.579270    -87.800521  6  7  3  98       
PG15 -26146.087479  -2061.454906   5146.528825   -357.011354  8  6  7  84       
PG16  15177.641036   5853.608351 -21215.024297     36.609657  9  7  6  98       
PG17  -3026.315347 -16215.593154  21224.388145   -146.792306  4  2  5  78       
PG18 -13383.821287  21749.559499   7540.896368    632.283049  8  7  4 101       
PG19 -11298.516661 -16919.796808  16673.085130   -477.521752  6  4  5  72       
PG20 -21299.392380   9736.023337 -12655.438557    491.757437  8  7  6 105       
PG21  -4241.262358  21951.616147 -13497.434078   -465.213941  6  3  4 115       
PG22  21329.603650  -5446.758569  15119.849860   -177.617818  9  6  7 112       
PG23  22751.272183  -3295.328877 -13404.737729   -218.507440  9  5  7 117       
PG24 -15686.765514   1124.889053  21329.620338    -41.794535  6  7  4 108       
PG25 -19738.600595  17577.986624    520.839671   -483.910061  6  5     92       
PG26   6338.328155  14598.155145 -21241.481752   -374.250880  5  4  5 107       
PG27  22126.846267  12539.464499  -8107.099559    344.332327  8  7  7 105       
PG28   9887.630276 -20121.845647  14886.541324    659.696010  6  4  3  82       
PG29 -18377.000358   6028.340335 -18213.419373    542.628618  4  5  5 120       
PG30   1256.256326 -25368.294495  -7495.590905    130.313737  5  3  5  88       
PG31   7853.504856  24741.698637  -4399.409381    164.379196  7  5  5 103       
PG32   6136.718752  16507.151452  19923.749810   -520.258926  6  6  4  73       
EOF
